ONEWEB-0522             
1 54140U 22138AD  26166.09542938 -.00000016  00000+0 -72206-4 0  9990
2 54140  87.9178 305.3736 0001720  97.8787 262.2541 13.19724434176531
ONEWEB-0523             
1 54141U 22138AE  26166.28691479  .00000021  00000+0  19760-4 0  9997
2 54141  87.9196 274.8190 0002780  99.5933 260.5515 13.20771033179056
ONEWEB-0524             
1 54142U 22138AF  26166.27681712  .00000099  00000+0  21053-3 0  9998
2 54142  87.9195 274.8180 0002567 117.3792 242.7603 13.20771342179053
ONEWEB-0525             
1 54143U 22138AG  26166.11437618 -.00000030  00000+0 -10727-3 0  9999
2 54143  87.9175 305.3775 0001540 105.7510 254.3792 13.19725148176552
ONEWEB-0526             
1 54144U 22138AH  26165.92009701 -.00000094  00000+0 -26694-3 0  9996
2 54144  87.9175 305.4166 0001763 102.3435 257.7895 13.19726088176504
ONEWEB-0529             
1 54145U 22138AJ  26166.15070672 -.00000068  00000+0 -20327-3 0  9996
2 54145  87.9167 305.3799 0001645 101.9979 258.1338 13.19724009176557
ONEWEB-0531             
1 54146U 22138AK  26166.26335805  .00000138  00000+0  30678-3 0  9997
2 54146  87.9192 274.8186 0002817 105.2901 254.8544 13.20771794179055
ONEWEB-0535             
1 54147U 22138AL  26166.10805766  .00000003  00000+0 -24651-4 0  9996
2 54147  87.9176 305.3726 0002184  95.8655 264.2727 13.19725012176566
ONEWEB-0536             
1 54148U 22138AM  26166.24988048  .00000146  00000+0  32670-3 0  9993
2 54148  87.9182 274.8439 0002941 108.7928 251.3525 13.20771235179042
ONEWEB-0527             
1 54642U 22166A   26166.28421098  .00000701  00000+0  16655-2 0  9995
2 54642  87.9254 244.3762 0002021  99.6160 260.5202 13.21819840171285
ONEWEB-0528             
1 54643U 22166B   26166.28505317  .00000090  00000+0  18617-3 0  9995
2 54643  87.9255 244.3782 0001860 103.5254 256.6087 13.21824709171296
ONEWEB-0539             
1 54644U 22166C   26166.24722531  .00000137  00000+0  30135-3 0  9992
2 54644  87.9260 244.3572 0001982  92.8118 267.3243 13.21827244171283
ONEWEB-0540             
1 54645U 22166D   26166.25408753  .00000132  00000+0  28775-3 0  9993
2 54645  87.9253 244.3863 0002046  95.4622 264.6746 13.21827397171276
ONEWEB-0542             
1 54646U 22166E   26166.25730847  .00000120  00000+0  25870-3 0  9996
2 54646  87.9263 244.3538 0002029  90.2357 269.9009 13.21828229171282
ONEWEB-0545             
1 54647U 22166F   26166.29767407  .00000019  00000+0  14818-4 0  9991
2 54647  87.9253 244.3576 0002159  84.8327 275.3054 13.21828837171257
ONEWEB-0580             
1 54648U 22166G   26166.27244310  .00000027  00000+0  34721-4 0  9997
2 54648  87.9255 244.3626 0002269  89.4991 270.6403 13.21827293171291
ONEWEB-0582             
1 54649U 22166H   26166.23881542  .00000161  00000+0  35739-3 0  9996
2 54649  87.9256 244.3620 0002207  87.7235 272.4152 13.21827284171269
ONEWEB-0583             
1 54650U 22166J   26166.25058127  .00000085  00000+0  17476-3 0  9998
2 54650  87.9253 244.3829 0002064  95.7699 264.3670 13.21827251171273
ONEWEB-0584             
1 54651U 22166K   26166.27076774  .00000016  00000+0  72500-5 0  9994
2 54651  87.9253 244.3643 0002114  96.3847 263.7528 13.21824902171260
ONEWEB-0585             
1 54652U 22166L   26166.14293510  .00000098  00000+0  20568-3 0  9995
2 54652  87.9257 244.3765 0001992 103.3280 256.8076 13.21826590171258
ONEWEB-0586             
1 54653U 22166M   26166.23207230  .00000115  00000+0  24621-3 0  9994
2 54653  87.9254 244.3845 0001988  94.0061 266.1300 13.21824199171261
ONEWEB-0587             
1 54654U 22166N   26166.24216492  .00000088  00000+0  18207-3 0  9998
2 54654  87.9266 244.3560 0002012 108.8728 251.2624 13.21824013171429
ONEWEB-0589             
1 54655U 22166P   26166.22870908  .00000169  00000+0  37780-3 0  9992
2 54655  87.9252 244.3710 0002465  79.7096 280.4316 13.21824582171285
ONEWEB-0590             
1 54656U 22166Q   26166.25381403  .00000083  00000+0  16837-3 0  9998
2 54656  87.9263 244.3561 0002503 100.9417 259.1999 13.21827375171271
ONEWEB-0591             
1 54657U 22166R   26166.26573445  .00000049  00000+0  88130-4 0  9997
2 54657  87.9253 244.3685 0002095  98.6796 261.4575 13.21826354171303
ONEWEB-0592             
1 54658U 22166S   26166.26908574  .00000031  00000+0  42409-4 0  9993
2 54658  87.9264 244.3458 0002032  98.5689 261.5675 13.21827459171180
ONEWEB-0593             
1 54659U 22166T   26165.91246058 -.00000042  00000+0 -13339-3 0  9990
2 54659  87.9254 244.4285 0001939  94.6699 265.4656 13.21824703171240
ONEWEB-0594             
1 54660U 22166U   26166.23545201  .00000383  00000+0  89490-3 0  9997
2 54660  87.9253 244.3807 0001942 102.7401 257.3950 13.21827246171305
ONEWEB-0595             
1 54661U 22166V   26165.75771177 -.00000085  00000+0 -23688-3 0  9995
2 54661  87.9262 244.4560 0002079 105.5792 254.5572 13.21827347171210
ONEWEB-0596             
1 54662U 22166W   26166.26236504  .00000014  00000+0  21532-5 0  9991
2 54662  87.9257 244.3675 0002054 101.9060 258.2304 13.21826775171287
