OBJECT_NAME,OBJECT_ID,EPOCH,MEAN_MOTION,ECCENTRICITY,INCLINATION,RA_OF_ASC_NODE,ARG_OF_PERICENTER,MEAN_ANOMALY,EPHEMERIS_TYPE,CLASSIFICATION_TYPE,NORAD_CAT_ID,ELEMENT_SET_NO,REV_AT_EPOCH,BSTAR,MEAN_MOTION_DOT,MEAN_MOTION_DDOT
ONEWEB-0522,2022-138AD,2026-06-15T02:17:25.098432,13.19724434,.00017208,87.9178,305.3736,97.8787,262.2541,0,U,54140,999,17653,-.72206159E-4,-.16E-6,0
ONEWEB-0523,2022-138AE,2026-06-15T06:53:09.437856,13.20771033,.00027802,87.9196,274.8190,99.5933,260.5515,0,U,54141,999,17905,.1976022E-4,.21E-6,0
ONEWEB-0524,2022-138AF,2026-06-15T06:38:36.999168,13.20771342,.00025675,87.9195,274.8180,117.3792,242.7603,0,U,54142,999,17905,.21052705E-3,.99E-6,0
ONEWEB-0525,2022-138AG,2026-06-15T02:44:42.101952,13.19725148,.00015401,87.9175,305.3775,105.7510,254.3792,0,U,54143,999,17655,-.10726667E-3,-.3E-6,0
ONEWEB-0526,2022-138AH,2026-06-14T22:04:56.381664,13.19726088,.0001763,87.9175,305.4166,102.3435,257.7895,0,U,54144,999,17650,-.26694E-3,-.94E-6,0
ONEWEB-0529,2022-138AJ,2026-06-15T03:37:01.060608,13.19724009,.00016452,87.9167,305.3799,101.9979,258.1338,0,U,54145,999,17655,-.20327418E-3,-.68E-6,0
ONEWEB-0531,2022-138AK,2026-06-15T06:19:14.135520,13.20771794,.00028177,87.9192,274.8186,105.2901,254.8544,0,U,54146,999,17905,.30677924E-3,.138E-5,0
ONEWEB-0535,2022-138AL,2026-06-15T02:35:36.181824,13.19725012,.00021841,87.9176,305.3726,95.8655,264.2727,0,U,54147,999,17656,-.24651216E-4,.3E-7,0
ONEWEB-0536,2022-138AM,2026-06-15T05:59:49.673472,13.20771235,.00029418,87.9182,274.8439,108.7928,251.3525,0,U,54148,999,17904,.3266977E-3,.146E-5,0
ONEWEB-0527,2022-166A,2026-06-15T06:49:15.828672,13.21819840,.00020217,87.9254,244.3762,99.6160,260.5202,0,U,54642,999,17128,.16655096E-2,.701E-5,0
ONEWEB-0528,2022-166B,2026-06-15T06:50:28.593888,13.21824709,.00018609,87.9255,244.3782,103.5254,256.6087,0,U,54643,999,17129,.18617184E-3,.9E-6,0
ONEWEB-0539,2022-166C,2026-06-15T05:56:00.266784,13.21827244,.00019825,87.9260,244.3572,92.8118,267.3243,0,U,54644,999,17128,.30135276E-3,.137E-5,0
ONEWEB-0540,2022-166D,2026-06-15T06:05:53.162592,13.21827397,.00020466,87.9253,244.3863,95.4622,264.6746,0,U,54645,999,17127,.28775421E-3,.132E-5,0
ONEWEB-0542,2022-166E,2026-06-15T06:10:31.451808,13.21828229,.00020299,87.9263,244.3538,90.2357,269.9009,0,U,54646,999,17128,.25869616E-3,.12E-5,0
ONEWEB-0545,2022-166F,2026-06-15T07:08:39.039648,13.21828837,.00021599,87.9253,244.3576,84.8327,275.3054,0,U,54647,999,17125,.14818193E-4,.19E-6,0
ONEWEB-0580,2022-166G,2026-06-15T06:32:19.083840,13.21827293,.00022692,87.9255,244.3626,89.4991,270.6403,0,U,54648,999,17129,.34721116E-4,.27E-6,0
ONEWEB-0582,2022-166H,2026-06-15T05:43:53.652288,13.21827284,.00022074,87.9256,244.3620,87.7235,272.4152,0,U,54649,999,17126,.35739464E-3,.161E-5,0
ONEWEB-0583,2022-166J,2026-06-15T06:00:50.221728,13.21827251,.00020646,87.9253,244.3829,95.7699,264.3670,0,U,54650,999,17127,.17475796E-3,.85E-6,0
ONEWEB-0584,2022-166K,2026-06-15T06:29:54.332736,13.21824902,.00021142,87.9253,244.3643,96.3847,263.7528,0,U,54651,999,17126,.7250019E-5,.16E-6,0
ONEWEB-0585,2022-166L,2026-06-15T03:25:49.592640,13.21826590,.00019929,87.9257,244.3765,103.3280,256.8076,0,U,54652,999,17125,.20567512E-3,.98E-6,0
ONEWEB-0586,2022-166M,2026-06-15T05:34:11.046720,13.21824199,.00019886,87.9254,244.3845,94.0061,266.1300,0,U,54653,999,17126,.24620711E-3,.115E-5,0
ONEWEB-0587,2022-166N,2026-06-15T05:48:43.049088,13.21824013,.00020125,87.9266,244.3560,108.8728,251.2624,0,U,54654,999,17142,.18206868E-3,.88E-6,0
ONEWEB-0589,2022-166P,2026-06-15T05:29:20.464512,13.21824582,.00024652,87.9252,244.3710,79.7096,280.4316,0,U,54655,999,17128,.37779518E-3,.169E-5,0
ONEWEB-0590,2022-166Q,2026-06-15T06:05:29.532192,13.21827375,.00025038,87.9263,244.3561,100.9417,259.1999,0,U,54656,999,17127,.16837329E-3,.83E-6,0
ONEWEB-0591,2022-166R,2026-06-15T06:22:39.456480,13.21826354,.0002095,87.9253,244.3685,98.6796,261.4575,0,U,54657,999,17130,.88129755E-4,.49E-6,0
ONEWEB-0592,2022-166S,2026-06-15T06:27:29.007936,13.21827459,.00020321,87.9264,244.3458,98.5689,261.5675,0,U,54658,999,17118,.42409454E-4,.31E-6,0
ONEWEB-0593,2022-166T,2026-06-14T21:53:56.594112,13.21824703,.0001939,87.9254,244.4285,94.6699,265.4656,0,U,54659,999,17124,-.13339E-3,-.42E-6,0
ONEWEB-0594,2022-166U,2026-06-15T05:39:03.053664,13.21827246,.00019422,87.9253,244.3807,102.7401,257.3950,0,U,54660,999,17130,.89490122E-3,.383E-5,0
ONEWEB-0595,2022-166V,2026-06-14T18:11:06.296928,13.21827347,.00020798,87.9262,244.4560,105.5792,254.5572,0,U,54661,999,17121,-.23688133E-3,-.85E-6,0
ONEWEB-0596,2022-166W,2026-06-15T06:17:48.339456,13.21826775,.00020543,87.9257,244.3675,101.9060,258.2304,0,U,54662,999,17128,.215316E-5,.14E-6,0
